{
  "norad_id": 59720,
  "name": "STARLINK-11095 [DTC]",
  "history": [
    {
      "epoch": "2026-03-28T17:07:05.315808Z",
      "apogee_km": 360.26193211933423,
      "perigee_km": 359.1973491901108,
      "latitude_deg": -1.6555119135432883e-05,
      "longitude_deg": 149.3241854493959,
      "height_km": 360.6791348254362,
      "semi_major_axis_km": 6737.866640654723,
      "eccentricity": 7.9e-05,
      "inclination_deg": 53.1599,
      "raan_deg": 232.2261,
      "arg_perigee_deg": 93.8168,
      "mean_anomaly_deg": 266.294,
      "mean_motion_rev_day": 15.6970899
    },
    {
      "epoch": "2026-03-30T13:25:55.394688Z",
      "apogee_km": 360.45884924449365,
      "perigee_km": 358.96358596804293,
      "latitude_deg": 3.4841315916898883e-05,
      "longitude_deg": -166.30744486539194,
      "height_km": 360.56406810328775,
      "semi_major_axis_km": 6737.848217606268,
      "eccentricity": 0.00011096,
      "inclination_deg": 53.1583,
      "raan_deg": 223.123,
      "arg_perigee_deg": 85.3498,
      "mean_anomaly_deg": 274.7647,
      "mean_motion_rev_day": 15.69715428
    },
    {
      "epoch": "2026-03-30T14:57:36.281376Z",
      "apogee_km": 360.44335134070843,
      "perigee_km": 358.97221031126264,
      "latitude_deg": 6.504180251382901e-05,
      "longitude_deg": 170.39626278813915,
      "height_km": 360.54115974610306,
      "semi_major_axis_km": 6737.844780825985,
      "eccentricity": 0.00010917,
      "inclination_deg": 53.1589,
      "raan_deg": 222.8098,
      "arg_perigee_deg": 83.7426,
      "mean_anomaly_deg": 276.3717,
      "mean_motion_rev_day": 15.69716629
    },
    {
      "epoch": "2026-03-31T18:27:55.587168Z",
      "apogee_km": 360.52733010730935,
      "perigee_km": 358.9910897714444,
      "latitude_deg": 4.5376877446435016e-05,
      "longitude_deg": 111.04000374393836,
      "height_km": 360.2944933159552,
      "semi_major_axis_km": 6737.896209939377,
      "eccentricity": 0.000114,
      "inclination_deg": 53.1597,
      "raan_deg": 217.1636,
      "arg_perigee_deg": 60.4792,
      "mean_anomaly_deg": 299.634,
      "mean_motion_rev_day": 15.69698657
    },
    {
      "epoch": "2026-04-01T14:19:48.327168Z",
      "apogee_km": 360.52652748852597,
      "perigee_km": 358.9350431176381,
      "latitude_deg": -5.230434109361963e-06,
      "longitude_deg": 168.1731049151086,
      "height_km": 360.23769829532336,
      "semi_major_axis_km": 6737.867785303082,
      "eccentricity": 0.0001181,
      "inclination_deg": 53.1592,
      "raan_deg": 213.0823,
      "arg_perigee_deg": 59.2565,
      "mean_anomaly_deg": 300.8569,
      "mean_motion_rev_day": 15.6970859
    },
    {
      "epoch": "2026-04-02T17:50:05.765856Z",
      "apogee_km": 360.3496459195085,
      "perigee_km": 358.8209914798408,
      "latitude_deg": -3.166946743088149e-05,
      "longitude_deg": 108.81894122125365,
      "height_km": 360.4382350032823,
      "semi_major_axis_km": 6737.722318699674,
      "eccentricity": 0.00011344,
      "inclination_deg": 53.1545,
      "raan_deg": 207.4304,
      "arg_perigee_deg": 85.4883,
      "mean_anomaly_deg": 274.6264,
      "mean_motion_rev_day": 15.69759425
    },
    {
      "epoch": "2026-04-03T13:42:03.004704Z",
      "apogee_km": 360.9816260211628,
      "perigee_km": 358.7419152298062,
      "latitude_deg": 3.64158754741824e-05,
      "longitude_deg": 165.93633337593167,
      "height_km": 361.0248043055845,
      "semi_major_axis_km": 6737.998770625484,
      "eccentricity": 0.0001662,
      "inclination_deg": 53.1593,
      "raan_deg": 203.3521,
      "arg_perigee_deg": 102.91,
      "mean_anomaly_deg": 257.2104,
      "mean_motion_rev_day": 15.69662818
    },
    {
      "epoch": "2026-04-04T17:12:17.511840Z",
      "apogee_km": 360.5951894929658,
      "perigee_km": 358.75711406516075,
      "latitude_deg": -5.093982337440157e-05,
      "longitude_deg": 106.59517081714661,
      "height_km": 360.5144188592888,
      "semi_major_axis_km": 6737.813151779063,
      "eccentricity": 0.0001364,
      "inclination_deg": 53.1594,
      "raan_deg": 197.701,
      "arg_perigee_deg": 85.3198,
      "mean_anomaly_deg": 274.7975,
      "mean_motion_rev_day": 15.69727682
    },
    {
      "epoch": "2026-04-05T13:04:13.328544Z",
      "apogee_km": 360.4640988963947,
      "perigee_km": 359.21865097357113,
      "latitude_deg": 1.9444888415400558e-05,
      "longitude_deg": 163.71780512307484,
      "height_km": 360.94527098614134,
      "semi_major_axis_km": 6737.978374934983,
      "eccentricity": 9.242e-05,
      "inclination_deg": 53.1598,
      "raan_deg": 193.622,
      "arg_perigee_deg": 107.7638,
      "mean_anomaly_deg": 252.3481,
      "mean_motion_rev_day": 15.69669945
    },
    {
      "epoch": "2026-04-05T23:45:59.934528Z",
      "apogee_km": 360.2904750993421,
      "perigee_km": 359.29366587265395,
      "latitude_deg": -1.12353353120138e-05,
      "longitude_deg": 0.6368092810466499,
      "height_km": 360.7600827382831,
      "semi_major_axis_km": 6737.929070485998,
      "eccentricity": 7.397e-05,
      "inclination_deg": 53.1598,
      "raan_deg": 191.4245,
      "arg_perigee_deg": 96.2087,
      "mean_anomaly_deg": 263.9015,
      "mean_motion_rev_day": 15.69687174
    },
    {
      "epoch": "2026-04-07T12:26:25.649088Z",
      "apogee_km": 360.4283840220314,
      "perigee_km": 359.13308671658433,
      "latitude_deg": 8.093011412178577e-06,
      "longitude_deg": 161.48793581998115,
      "height_km": 360.50073076012893,
      "semi_major_axis_km": 6737.917735369308,
      "eccentricity": 9.612e-05,
      "inclination_deg": 53.1593,
      "raan_deg": 183.8889,
      "arg_perigee_deg": 72.5859,
      "mean_anomaly_deg": 287.5264,
      "mean_motion_rev_day": 15.69691135
    },
    {
      "epoch": "2026-04-07T15:29:47.112288Z",
      "apogee_km": 360.5110814746022,
      "perigee_km": 358.9950562091126,
      "latitude_deg": 2.0471200838029083e-05,
      "longitude_deg": 114.89521076816723,
      "height_km": 360.5042949733009,
      "semi_major_axis_km": 6737.890068841857,
      "eccentricity": 0.0001125,
      "inclination_deg": 53.1601,
      "raan_deg": 183.2611,
      "arg_perigee_deg": 77.6256,
      "mean_anomaly_deg": 282.4888,
      "mean_motion_rev_day": 15.69700803
    },
    {
      "epoch": "2026-04-08T11:21:40.435488Z",
      "apogee_km": 360.6961813790422,
      "perigee_km": 358.78599294133164,
      "latitude_deg": -3.628149230151172e-05,
      "longitude_deg": 172.02926714865444,
      "height_km": 360.3812682530397,
      "semi_major_axis_km": 6737.878087160187,
      "eccentricity": 0.00014175,
      "inclination_deg": 53.1607,
      "raan_deg": 179.1832,
      "arg_perigee_deg": 73.378,
      "mean_anomaly_deg": 286.7393,
      "mean_motion_rev_day": 15.6970499
    },
    {
      "epoch": "2026-04-09T11:48:36.824832Z",
      "apogee_km": 360.2792005760148,
      "perigee_km": 359.256251880478,
      "latitude_deg": -2.37662293291989e-05,
      "longitude_deg": 159.268433183746,
      "height_km": 360.4384537279406,
      "semi_major_axis_km": 6737.904726228246,
      "eccentricity": 7.591e-05,
      "inclination_deg": 53.1593,
      "raan_deg": 174.1614,
      "arg_perigee_deg": 61.5801,
      "mean_anomaly_deg": 298.5293,
      "mean_motion_rev_day": 15.69695681
    },
    {
      "epoch": "2026-04-11T11:10:48.784224Z",
      "apogee_km": 360.11291125077696,
      "perigee_km": 359.3852195557138,
      "latitude_deg": 2.3324603309819978e-05,
      "longitude_deg": 157.04401656914362,
      "height_km": 360.4332668832028,
      "semi_major_axis_km": 6737.886065403245,
      "eccentricity": 5.4e-05,
      "inclination_deg": 53.1591,
      "raan_deg": 164.4322,
      "arg_perigee_deg": 50.7428,
      "mean_anomaly_deg": 309.3638,
      "mean_motion_rev_day": 15.69702202
    },
    {
      "epoch": "2026-04-13T02:54:34.989984Z",
      "apogee_km": 360.8904158915211,
      "perigee_km": 358.57865216819573,
      "latitude_deg": -1.868263178399247e-05,
      "longitude_deg": -88.69217264910527,
      "height_km": 361.0659390264309,
      "semi_major_axis_km": 6737.871534029859,
      "eccentricity": 0.00017155,
      "inclination_deg": 53.1599,
      "raan_deg": 156.2702,
      "arg_perigee_deg": 111.2243,
      "mean_anomaly_deg": 248.8958,
      "mean_motion_rev_day": 15.6970728
    },
    {
      "epoch": "2026-04-14T20:10:03.615168Z",
      "apogee_km": 360.601259741029,
      "perigee_km": 359.02592689231096,
      "latitude_deg": -6.557038247940805e-05,
      "longitude_deg": 2.2704187483027485,
      "height_km": 360.7308104140934,
      "semi_major_axis_km": 6737.950593316669,
      "eccentricity": 0.0001169,
      "inclination_deg": 53.1599,
      "raan_deg": 147.7965,
      "arg_perigee_deg": 90.2666,
      "mean_anomaly_deg": 269.8485,
      "mean_motion_rev_day": 15.69679653
    },
    {
      "epoch": "2026-04-15T08:23:31.085376Z",
      "apogee_km": 360.3011449267242,
      "perigee_km": 359.16446629051825,
      "latitude_deg": -4.094988378911155e-05,
      "longitude_deg": 175.8928447796803,
      "height_km": 360.64156806164397,
      "semi_major_axis_km": 6737.8698056086205,
      "eccentricity": 8.435e-05,
      "inclination_deg": 53.1589,
      "raan_deg": 145.2854,
      "arg_perigee_deg": 89.4837,
      "mean_anomaly_deg": 270.6277,
      "mean_motion_rev_day": 15.69707884
    },
    {
      "epoch": "2026-04-16T19:32:14.941248Z",
      "apogee_km": 360.53678272128036,
      "perigee_km": 358.9412536801701,
      "latitude_deg": -3.467506522237936e-05,
      "longitude_deg": 0.04754446249664975,
      "height_km": 360.6869769889084,
      "semi_major_axis_km": 6737.8760182007245,
      "eccentricity": 0.0001184,
      "inclination_deg": 53.1601,
      "raan_deg": 138.0662,
      "arg_perigee_deg": 92.4713,
      "mean_anomaly_deg": 267.644,
      "mean_motion_rev_day": 15.69705713
    }
  ]
}